      2.10          N: GNSS NAV DATA                        RINEX VERSION / TYPE
fic2rin                                 05/21/2021 00:17:09 PGM / RUN BY / DATE
                                                            END OF HEADER
 5 21  5 20  1 59 44.0-4.244409501553e-05-1.136868377216e-12 0.000000000000e+00
    3.300000000000e+01-7.631250000000e+01 4.958420823844e-09 1.395461533934e+00
   -3.846362233162e-06 6.088168011047e-03 6.049871444702e-06 5.153877626419e+03
    3.527840000000e+05-1.657754182816e-07-2.311962246279e+00 1.341104507446e-07
    9.561728138528e-01 2.635625000000e+02 8.907929246209e-01-8.411778955786e-09
   -5.571660653459e-11 1.000000000000e+00 2.158000000000e+03 0.000000000000e+00
    2.400000000000e+00 0.000000000000e+00-1.117587089539e-08 3.300000000000e+01
    3.469500000000e+05 4.000000000000e+00
32 21  5 20  1 59 44.0 2.087373286486e-05-7.958078640513e-13 0.000000000000e+00
    2.900000000000e+01-5.275000000000e+01 4.516616706644e-09 1.589783844833e+00
   -2.643093466759e-06 4.954360774718e-03 1.075863838196e-05 5.153678590775e+03
    3.527840000000e+05-1.154839992523e-07-1.235196969723e+00 7.078051567078e-08
    9.569798077416e-01 1.730312500000e+02-2.367418740859e+00-7.981761043814e-09
    7.143154683922e-12 1.000000000000e+00 2.158000000000e+03 0.000000000000e+00
    2.400000000000e+00 0.000000000000e+00 4.656612873077e-10 2.900000000000e+01
    3.484500000000e+05 4.000000000000e+00
 5 21  5 20  3 59 44.0-4.245201125741e-05-1.136868377216e-12 0.000000000000e+00
    5.200000000000e+01-7.378125000000e+01 4.844130348901e-09 2.445505156169e+00
   -3.850087523460e-06 6.087834830396e-03 5.766749382019e-06 5.153878015518e+03
    3.599840000000e+05-5.587935447693e-08-2.312022451210e+00-1.192092895508e-07
    9.561738466730e-01 2.672187500000e+02 8.908089070009e-01-8.157839806773e-09
    2.785830326729e-11 1.000000000000e+00 2.158000000000e+03 0.000000000000e+00
    2.400000000000e+00 0.000000000000e+00-1.117587089539e-08 5.200000000000e+01
    3.528000000000e+05 4.000000000000e+00
32 21  5 20  3 59 44.0 2.086767926812e-05-7.958078640513e-13 0.000000000000e+00
    3.000000000000e+01-4.693750000000e+01 4.571618997710e-09 2.640273156763e+00
   -2.471730113029e-06 4.955343087204e-03 1.111626625061e-05 5.153675182343e+03
    3.599840000000e+05-5.587935447693e-08-1.235254213708e+00-5.029141902924e-08
    9.569805216457e-01 1.610312500000e+02-2.367728857548e+00-7.864613306998e-09
    4.357324357192e-11 1.000000000000e+00 2.158000000000e+03 0.000000000000e+00
    2.400000000000e+00 0.000000000000e+00 4.656612873077e-10 3.000000000000e+01
    3.528000000000e+05 4.000000000000e+00
21 21  5 20  3 59 44.0 1.193485222757e-04 2.614797267597e-12 0.000000000000e+00
    5.800000000000e+01 4.237500000000e+01 4.545546483114e-09 2.086131049880e+00
    2.043321728706e-06 2.407790836878e-02 4.589557647705e-06 5.153689752579e+03
    3.599840000000e+05 2.998858690262e-07 2.887151948050e+00-1.862645149231e-08
    9.573702737433e-01 2.838437500000e+02-1.137596836446e+00-7.952831267344e-09
    1.192906832215e-10 1.000000000000e+00 2.158000000000e+03 0.000000000000e+00
    2.400000000000e+00 0.000000000000e+00-1.024454832077e-08 5.800000000000e+01
    3.528000000000e+05 4.000000000000e+00
 2 21  5 20  4  0  0.0-6.056623533368e-04-3.183231456205e-12 0.000000000000e+00
    1.010000000000e+02 2.346875000000e+01 4.594119934964e-09 2.293580519692e-03
    1.005828380585e-06 2.020535257179e-02 5.468726158142e-06 5.153678022385e+03
    3.600000000000e+05-3.352761268616e-07 2.887031429933e+00-1.862645149231e-08
    9.632210756241e-01 2.779375000000e+02-1.517379748591e+00-8.576428671251e-09
    2.832260832175e-10 1.000000000000e+00 2.158000000000e+03 0.000000000000e+00
    2.400000000000e+00 0.000000000000e+00-1.769512891769e-08 1.010000000000e+02
    3.528000000000e+05 4.000000000000e+00
 1 21  5 20  4  0  0.0 6.840042769909e-04-1.114131009672e-11 0.000000000000e+00
    8.900000000000e+01 2.553125000000e+01 4.188745906652e-09-2.709144329250e-01
    1.501291990280e-06 1.088933669962e-02 5.383044481277e-06 5.153681163788e+03
    3.600000000000e+05-1.676380634308e-08 2.970665729454e+00 1.080334186554e-07
    9.845742009532e-01 2.912812500000e+02 8.439744229452e-01-8.212484940105e-09
    3.185846989029e-10 1.000000000000e+00 2.158000000000e+03 0.000000000000e+00
    2.400000000000e+00 0.000000000000e+00 5.122274160385e-09 8.900000000000e+01
    3.528000000000e+05 4.000000000000e+00
15 21  5 20  4  0  0.0-1.481943763793e-04 2.614797267597e-12 0.000000000000e+00
    1.400000000000e+01-4.062500000000e+01 5.458798809453e-09 1.023015153030e+00
   -1.899898052216e-06 1.315496023744e-02 1.011975109577e-05 5.153616554260e+03
    3.600000000000e+05-1.657754182816e-07-1.344158388129e+00 1.173466444016e-07
    9.286399919374e-01 1.723125000000e+02 9.824806934988e-01-8.578214459922e-09
   -7.286017777600e-11 1.000000000000e+00 2.158000000000e+03 0.000000000000e+00
    2.400000000000e+00 0.000000000000e+00-1.071020960808e-08 1.400000000000e+01
    3.528000000000e+05 4.000000000000e+00
16 21  5 20  4  0  0.0-3.279666416347e-04-6.025402399246e-12 0.000000000000e+00
    5.000000000000e+01 1.028125000000e+01 4.211604001640e-09 2.840687431588e+00
    3.855675458908e-07 1.221227180213e-02 7.055699825287e-06 5.153694427490e+03
    3.600000000000e+05 2.048909664154e-08 9.561852428048e-01-1.490116119385e-07
    9.738065679809e-01 2.500000000000e+02 6.788827367052e-01-7.786395763209e-09
   -3.853731951976e-10 1.000000000000e+00 2.158000000000e+03 0.000000000000e+00
    2.400000000000e+00 0.000000000000e+00-1.024454832077e-08 5.000000000000e+01
    3.528000000000e+05 4.000000000000e+00
12 21  5 20  4  0  0.0-4.346948117018e-05-5.229594535194e-12 0.000000000000e+00
    4.900000000000e+01 1.762500000000e+01 4.230890519287e-09-1.618870815325e+00
    9.164214134216e-07 8.434313233010e-03 7.048249244690e-06 5.153738794327e+03
    3.600000000000e+05 2.123415470123e-07 9.374366895095e-01 1.359730958939e-07
    9.737394727061e-01 2.504062500000e+02 1.215984593862e+00-7.872827934884e-09
   -3.943021385525e-10 1.000000000000e+00 2.158000000000e+03 0.000000000000e+00
    2.400000000000e+00 0.000000000000e+00-1.257285475731e-08 4.900000000000e+01
    3.528000000000e+05 4.000000000000e+00
 9 21  5 20  4  0  0.0-3.465195186436e-04-2.273736754432e-12 0.000000000000e+00
    3.400000000000e+01-4.603125000000e+01 4.737340186377e-09 2.381486049927e+00
   -2.304092049599e-06 1.858199830167e-03 9.680166840553e-06 5.153783706665e+03
    3.600000000000e+05 4.470348358154e-08-1.245259343056e+00-8.195638656616e-08
    9.530005023305e-01 1.854375000000e+02 1.831856420653e+00-8.009619347081e-09
    9.643258823294e-12 1.000000000000e+00 2.158000000000e+03 0.000000000000e+00
    2.400000000000e+00 0.000000000000e+00 1.396983861923e-09 3.400000000000e+01
    3.528000000000e+05 4.000000000000e+00
 6 21  5 20  4  0  0.0 1.753587275743e-05 3.865352482535e-12 0.000000000000e+00
    2.700000000000e+01 1.687500000000e+01 4.028024926263e-09-4.973095652253e-02
    7.525086402893e-07 2.214203355834e-03 4.986301064491e-06 5.153768114090e+03
    3.600000000000e+05-2.048909664154e-08 2.962414657901e+00 1.862645149231e-08
    9.840307502934e-01 2.898125000000e+02-9.704846847883e-01-8.038906281285e-09
    3.121558596874e-10 1.000000000000e+00 2.158000000000e+03 0.000000000000e+00
    2.400000000000e+00 0.000000000000e+00 4.190951585770e-09 2.700000000000e+01
    3.528000000000e+05 4.000000000000e+00
 3 21  5 20  4  0  0.0-1.687565818429e-04-1.034550223267e-11 0.000000000000e+00
    6.900000000000e+01-7.481250000000e+01 4.626621288776e-09-1.322549297487e+00
   -3.801658749580e-06 3.513312316500e-03 5.230307579041e-06 5.153594570160e+03
    3.600000000000e+05 1.415610313416e-07-2.275267427370e+00 2.235174179077e-08
    9.691955467476e-01 2.841562500000e+02 8.339787762321e-01-8.163197172786e-09
    1.214336296267e-11 1.000000000000e+00 2.158000000000e+03 0.000000000000e+00
    2.400000000000e+00 0.000000000000e+00 1.862645149231e-09 6.900000000000e+01
    3.528000000000e+05 4.000000000000e+00
 7 21  5 20  4  0  0.0 1.557366922498e-04 1.057287590811e-11 0.000000000000e+00
    4.100000000000e+01 3.921875000000e+01 4.922347892690e-09-8.539368160674e-01
    2.026557922363e-06 1.491268409882e-02 7.292255759239e-06 5.153755170822e+03
    3.600000000000e+05 1.676380634308e-07-1.727508786932e-01 2.812594175339e-07
    9.519904480976e-01 2.337187500000e+02-2.333526947598e+00-8.302131531388e-09
   -1.035757429169e-11 1.000000000000e+00 2.158000000000e+03 0.000000000000e+00
    2.400000000000e+00 0.000000000000e+00-1.117587089539e-08 4.100000000000e+01
    3.528000000000e+05 4.000000000000e+00
 8 21  5 20  4  0  0.0-2.186279743910e-05-1.364242052659e-12 0.000000000000e+00
    9.500000000000e+01 3.240625000000e+01 4.049811548049e-09 1.967927715266e+00
    1.737847924232e-06 6.349953822792e-03 9.542331099510e-06 5.153606760025e+03
    3.600000000000e+05-4.470348358154e-08 1.895999659882e+00 4.470348358154e-08
    9.672420464051e-01 1.980000000000e+02 5.076350019497e-02-7.899614764949e-09
   -1.532206679701e-10 1.000000000000e+00 2.158000000000e+03 0.000000000000e+00
    3.400000000000e+00 0.000000000000e+00 5.122274160385e-09 9.500000000000e+01
    3.528000000000e+05 4.000000000000e+00
 4 21  5 20  4  0  0.0-1.969495788217e-04-1.477928890381e-12 0.000000000000e+00
    2.040000000000e+02-3.934375000000e+01 4.628407077447e-09 1.349563844100e+00
   -1.832842826843e-06 1.222875667736e-03 1.005828380585e-05 5.153746952057e+03
    3.600000000000e+05 1.043081283569e-07-1.194468878355e+00 1.117587089539e-08
    9.601591456595e-01 1.852187500000e+02-2.923750173405e+00-7.993190091308e-09
    4.893060958486e-11 1.000000000000e+00 2.158000000000e+03 0.000000000000e+00
    2.400000000000e+00 0.000000000000e+00-4.190951585770e-09 9.720000000000e+02
    3.528000000000e+05 4.000000000000e+00
